[{"OBJECT_NAME":"ONEWEB-0595","OBJECT_ID":"2022-166V","EPOCH":"2026-03-09T22:37:21.327744","MEAN_MOTION":13.2182539,"ECCENTRICITY":0.00018125,"INCLINATION":87.9171,"RA_OF_ASC_NODE":263.7571,"ARG_OF_PERICENTER":90.6849,"MEAN_ANOMALY":269.4492,"EPHEMERIS_TYPE":0,"CLASSIFICATION_TYPE":"U","NORAD_CAT_ID":54661,"ELEMENT_SET_NO":999,"REV_AT_EPOCH":15842,"BSTAR":-0.00050140173,"MEAN_MOTION_DOT":-1.94e-6,"MEAN_MOTION_DDOT":0},{"OBJECT_NAME":"COSMOS 770","OBJECT_ID":"1975-089A","EPOCH":"2026-03-09T23:14:15.970560","MEAN_MOTION":13.19804498,"ECCENTRICITY":0.00283758,"INCLINATION":82.9533,"RA_OF_ASC_NODE":75.5278,"ARG_OF_PERICENTER":350.4032,"MEAN_ANOMALY":70.2298,"EPHEMERIS_TYPE":0,"CLASSIFICATION_TYPE":"U","NORAD_CAT_ID":8325,"ELEMENT_SET_NO":999,"REV_AT_EPOCH":43030,"BSTAR":3.5508058e-5,"MEAN_MOTION_DOT":2.7e-7,"MEAN_MOTION_DDOT":0}]
